[{"OBJECT_NAME":"LEMUR-2-ANDIS","OBJECT_ID":"2017-042P","EPOCH":"2026-03-09T13:25:33.116448","MEAN_MOTION":15.30557934,"ECCENTRICITY":0.0009101,"INCLINATION":97.3659,"RA_OF_ASC_NODE":249.795,"ARG_OF_PERICENTER":4.3248,"MEAN_ANOMALY":355.807,"EPHEMERIS_TYPE":0,"CLASSIFICATION_TYPE":"U","NORAD_CAT_ID":42838,"ELEMENT_SET_NO":999,"REV_AT_EPOCH":47319,"BSTAR":0.00079875,"MEAN_MOTION_DOT":0.00023598,"MEAN_MOTION_DDOT":0},{"OBJECT_NAME":"STARLINK-34797","OBJECT_ID":"2025-190N","EPOCH":"2026-03-09T13:20:57.311232","MEAN_MOTION":15.30177206,"ECCENTRICITY":0.0001077,"INCLINATION":53.1581,"RA_OF_ASC_NODE":168.8777,"ARG_OF_PERICENTER":81.7287,"MEAN_ANOMALY":278.3835,"EPHEMERIS_TYPE":0,"CLASSIFICATION_TYPE":"U","NORAD_CAT_ID":65363,"ELEMENT_SET_NO":999,"REV_AT_EPOCH":2973,"BSTAR":0.00093574,"MEAN_MOTION_DOT":0.00027437,"MEAN_MOTION_DDOT":0}]
